[{"OBJECT_NAME":"YAOGAN-39 05A","OBJECT_ID":"2023-194A","EPOCH":"2026-03-08T20:55:33.510432","MEAN_MOTION":15.23021204,"ECCENTRICITY":0.00045924,"INCLINATION":35.0016,"RA_OF_ASC_NODE":328.2574,"ARG_OF_PERICENTER":131.0582,"MEAN_ANOMALY":229.053,"EPHEMERIS_TYPE":0,"CLASSIFICATION_TYPE":"U","NORAD_CAT_ID":58557,"ELEMENT_SET_NO":999,"REV_AT_EPOCH":12505,"BSTAR":0.00065635507,"MEAN_MOTION_DOT":0.00015822,"MEAN_MOTION_DDOT":0},{"OBJECT_NAME":"SUPERVIEW NEO-3 01","OBJECT_ID":"2024-072A","EPOCH":"2026-03-09T22:59:09.446208","MEAN_MOTION":15.23128449,"ECCENTRICITY":0.00029396,"INCLINATION":97.4184,"RA_OF_ASC_NODE":150.1524,"ARG_OF_PERICENTER":104.5976,"MEAN_ANOMALY":255.5587,"EPHEMERIS_TYPE":0,"CLASSIFICATION_TYPE":"U","NORAD_CAT_ID":59510,"ELEMENT_SET_NO":999,"REV_AT_EPOCH":10559,"BSTAR":0.00057697543,"MEAN_MOTION_DOT":0.00013563,"MEAN_MOTION_DDOT":0}]
